ENVISAT                 
1 27386U 02009A   09219.00000000  .00000000  00000+0  00000+0 0 00010
2 27386  98.5472 285.6566 0001341  95.7230  99.0728 14.32244746388760